{"type": "FeatureCollection", "features": [ {"type": "Feature", "properties": {"norad_id": 31553, "name": "FENGYUN 1C DEB", "group": "fengyun-1c-debris", "lat": 46.63489925046157, "lon": 24.24070274101711, "alt_km": 781.762860797, "timestamp": "2025-12-05T09:41:19.412939+00:00", "meta": {"OBJECT_NAME": "FENGYUN 1C DEB", "OBJECT_ID": "1999-025BYU", "EPOCH": "2025-12-03T02:11:38.808096", "MEAN_MOTION": 14.30020228, "ECCENTRICITY": 0.00309779, "INCLINATION": 99.0052, "RA_OF_ASC_NODE": 31.5154, "ARG_OF_PERICENTER": 129.5445, "MEAN_ANOMALY": 261.1133, "EPHEMERIS_TYPE": 0, "CLASSIFICATION_TYPE": "U", "NORAD_CAT_ID": 31553, "ELEMENT_SET_NO": 999, "REV_AT_EPOCH": 95772, "BSTAR": 0.0021193082, "MEAN_MOTION_DOT": 5.455e-05, "MEAN_MOTION_DDOT": 0}, "tle": {"line1": "1 31553U 99025BYU 25337.09142139  .00005455  00000+0  21193-2 0  9997", "line2": "2 31553  99.0052  31.5154 0030977 129.5445 261.1133 14.30020228957728"}}, "geometry": {"type": "Point", "coordinates": [24.24070274101711, 46.63489925046157]}}, {"type": "Feature", "properties": {"norad_id": 31555, "name": "FENGYUN 1C DEB", "group": "fengyun-1c-debris", "lat": 23.741155687910496, "lon": 117.07529734237363, "alt_km": 692.396413451901, "timestamp": "2025-12-05T09:41:19.412949+00:00", "meta": {"OBJECT_NAME": "FENGYUN 1C DEB", "OBJECT_ID": "1999-025BYW", "EPOCH": "2025-12-01T03:31:04.241568", "MEAN_MOTION": 14.440428, "ECCENTRICITY": 0.01547303, "INCLINATION": 99.1019, "RA_OF_ASC_NODE": 288.4787, "ARG_OF_PERICENTER": 231.041, "MEAN_ANOMALY": 127.6906, "EPHEMERIS_TYPE": 0, "CLASSIFICATION_TYPE": "U", "NORAD_CAT_ID": 31555, "ELEMENT_SET_NO": 999, "REV_AT_EPOCH": 96396, "BSTAR": 0.0015674525, "MEAN_MOTION_DOT": 6.152e-05, "MEAN_MOTION_DDOT": 0}, "tle": {"line1": "1 31555U 99025BYW 25335.14657687  .00006152  00000+0  15675-2 0  9995", "line2": "2 31555  99.1019 288.4787 0154730 231.0410 127.6906 14.44042800963966"}}, "geometry": {"type": "Point", "coordinates": [117.07529734237363, 23.741155687910496]}}, {"type": "Feature", "properties": {"norad_id": 31558, "name": "FENGYUN 1C DEB", "group": "fengyun-1c-debris", "lat": -42.87259317191454, "lon": 46.34435032721585, "alt_km": 693.4184734512264, "timestamp": "2025-12-05T09:41:19.412959+00:00", "meta": {"OBJECT_NAME": "FENGYUN 1C DEB", "OBJECT_ID": "1999-025BYZ", "EPOCH": "2025-12-04T11:46:54.274080", "MEAN_MOTION": 14.38668973, "ECCENTRICITY": 0.021103, "INCLINATION": 98.7909, "RA_OF_ASC_NODE": 233.6687, "ARG_OF_PERICENTER": 286.8579, "MEAN_ANOMALY": 253.816, "EPHEMERIS_TYPE": 0, "CLASSIFICATION_TYPE": "U", "NORAD_CAT_ID": 31558, "ELEMENT_SET_NO": 999, "REV_AT_EPOCH": 97316, "BSTAR": 0.00064243, "MEAN_MOTION_DOT": 2.497e-05, "MEAN_MOTION_DDOT": 0}, "tle": {"line1": "1 31558U 99025BYZ 25338.49090595  .00002497  00000+0  64243-3 0  9992", "line2": "2 31558  98.7909 233.6687 0211030 286.8579 253.8160 14.38668973973169"}}, "geometry": {"type": "Point", "coordinates": [46.34435032721585, -42.87259317191454]}}, {"type": "Feature", "properties": {"norad_id": 31559, "name": "FENGYUN 1C DEB", "group": "fengyun-1c-debris", "lat": 24.20941908249765, "lon": 116.98922991093059, "alt_km": 663.271161613291, "timestamp": "2025-12-05T09:41:19.412969+00:00", "meta": {"OBJECT_NAME": "FENGYUN 1C DEB", "OBJECT_ID": "1999-025BZA", "EPOCH": "2025-12-04T17:07:15.255264", "MEAN_MOTION": 14.63373742, "ECCENTRICITY": 0.0054209, "INCLINATION": 98.867, "RA_OF_ASC_NODE": 292.2226, "ARG_OF_PERICENTER": 219.1644, "MEAN_ANOMALY": 262.1073, "EPHEMERIS_TYPE": 0, "CLASSIFICATION_TYPE": "U", "NORAD_CAT_ID": 31559, "ELEMENT_SET_NO": 999, "REV_AT_EPOCH": 97439, "BSTAR": 0.0036898, "MEAN_MOTION_DOT": 0.00019474, "MEAN_MOTION_DDOT": 0}, "tle": {"line1": "1 31559U 99025BZA 25338.71337101  .00019474  00000+0  36898-2 0  9992", "line2": "2 31559  98.8670 292.2226 0054209 219.1644 262.1073 14.63373742974398"}}, "geometry": {"type": "Point", "coordinates": [116.98922991093059, 24.20941908249765]}}, {"type": "Feature", "properties": {"norad_id": 31560, "name": "FENGYUN 1C DEB", "group": "fengyun-1c-debris", "lat": 38.756533860446154, "lon": -157.31427492268793, "alt_km": 903.7700005611359, "timestamp": "2025-12-05T09:41:19.412979+00:00", "meta": {"OBJECT_NAME": "FENGYUN 1C DEB", "OBJECT_ID": "1999-025BZB", "EPOCH": "2025-12-03T19:51:18.790848", "MEAN_MOTION": 14.21218132, "ECCENTRICITY": 0.0120334, "INCLINATION": 98.59, "RA_OF_ASC_NODE": 14.1826, "ARG_OF_PERICENTER": 334.444, "MEAN_ANOMALY": 25.0819, "EPHEMERIS_TYPE": 0, "CLASSIFICATION_TYPE": "U", "NORAD_CAT_ID": 31560, "ELEMENT_SET_NO": 999, "REV_AT_EPOCH": 96492, "BSTAR": 0.00011051, "MEAN_MOTION_DOT": 2.15e-06, "MEAN_MOTION_DDOT": 0}, "tle": {"line1": "1 31560U 99025BZB 25337.82730082  .00000215  00000+0  11051-3 0  9998", "line2": "2 31560  98.5900  14.1826 0120334 334.4440  25.0819 14.21218132964925"}}, "geometry": {"type": "Point", "coordinates": [-157.31427492268793, 38.756533860446154]}}, {"type": "Feature", "properties": {"norad_id": 31561, "name": "FENGYUN 1C DEB", "group": "fengyun-1c-debris", "lat": -80.01101448591696, "lon": 36.329190347332975, "alt_km": 878.3046258570621, "timestamp": "2025-12-05T09:41:19.412989+00:00", "meta": {"OBJECT_NAME": "FENGYUN 1C DEB", "OBJECT_ID": "1999-025BZC", "EPOCH": "2025-12-04T10:52:34.838400", "MEAN_MOTION": 14.02749614, "ECCENTRICITY": 0.0056418, "INCLINATION": 98.7158, "RA_OF_ASC_NODE": 334.8499, "ARG_OF_PERICENTER": 206.1927, "MEAN_ANOMALY": 310.7428, "EPHEMERIS_TYPE": 0, "CLASSIFICATION_TYPE": "U", "NORAD_CAT_ID": 31561, "ELEMENT_SET_NO": 999, "REV_AT_EPOCH": 95062, "BSTAR": 0.00091362, "MEAN_MOTION_DOT": 1.39e-05, "MEAN_MOTION_DDOT": 0}, "tle": {"line1": "1 31561U 99025BZC 25338.45318100  .00001390  00000+0  91362-3 0  9990", "line2": "2 31561  98.7158 334.8499 0056418 206.1927 310.7428 14.02749614950622"}}, "geometry": {"type": "Point", "coordinates": [36.329190347332975, -80.01101448591696]}}, {"type": "Feature", "properties": {"norad_id": 31562, "name": "FENGYUN 1C DEB", "group": "fengyun-1c-debris", "lat": 19.613527911328635, "lon": -46.339060347997645, "alt_km": 785.3612313882577, "timestamp": "2025-12-05T09:41:19.412999+00:00", "meta": {"OBJECT_NAME": "FENGYUN 1C DEB", "OBJECT_ID": "1999-025BZD", "EPOCH": "2025-11-30T09:02:26.155968", "MEAN_MOTION": 14.41943964, "ECCENTRICITY": 0.00571865, "INCLINATION": 99.2576, "RA_OF_ASC_NODE": 124.8818, "ARG_OF_PERICENTER": 319.7345, "MEAN_ANOMALY": 39.9613, "EPHEMERIS_TYPE": 0, "CLASSIFICATION_TYPE": "U", "NORAD_CAT_ID": 31562, "ELEMENT_SET_NO": 999, "REV_AT_EPOCH": 96812, "BSTAR": 0.00090169578, "MEAN_MOTION_DOT": 2.962e-05, "MEAN_MOTION_DDOT": 0}, "tle": {"line1": "1 31562U 99025BZD 25334.37669162  .00002962  00000+0  90170-3 0  9997", "line2": "2 31562  99.2576 124.8818 0057186 319.7345  39.9613 14.41943964968120"}}, "geometry": {"type": "Point", "coordinates": [-46.339060347997645, 19.613527911328635]}}, {"type": "Feature", "properties": {"norad_id": 31563, "name": "FENGYUN 1C DEB", "group": "fengyun-1c-debris", "lat": -58.46743077856899, "lon": 147.12498552798306, "alt_km": 759.4489198700358, "timestamp": "2025-12-05T09:41:19.413009+00:00", "meta": {"OBJECT_NAME": "FENGYUN 1C DEB", "OBJECT_ID": "1999-025BZE", "EPOCH": "2025-12-01T09:15:52.692192", "MEAN_MOTION": 14.65165233, "ECCENTRICITY": 0.01140629, "INCLINATION": 98.9502, "RA_OF_ASC_NODE": 127.8711, "ARG_OF_PERICENTER": 113.7658, "MEAN_ANOMALY": 247.5554, "EPHEMERIS_TYPE": 0, "CLASSIFICATION_TYPE": "U", "NORAD_CAT_ID": 31563, "ELEMENT_SET_NO": 999, "REV_AT_EPOCH": 98378, "BSTAR": 0.00091407218, "MEAN_MOTION_DOT": 5.352e-05, "MEAN_MOTION_DDOT": 0}, "tle": {"line1": "1 31563U 99025BZE 25335.38602653  .00005352  00000+0  91407-3 0  9992", "line2": "2 31563  98.9502 127.8711 0114062 113.7658 247.5554 14.65165233983788"}}, "geometry": {"type": "Point", "coordinates": [147.12498552798306, -58.46743077856899]}}, {"type": "Feature", "properties": {"norad_id": 31565, "name": "FENGYUN 1C DEB", "group": "fengyun-1c-debris", "lat": -38.862773670423124, "lon": 20.93556307773996, "alt_km": 808.750550217208, "timestamp": "2025-12-05T09:41:19.413019+00:00", "meta": {"OBJECT_NAME": "FENGYUN 1C DEB", "OBJECT_ID": "1999-025BZG", "EPOCH": "2025-11-29T09:07:25.735008", "MEAN_MOTION": 14.38541647, "ECCENTRICITY": 0.00553237, "INCLINATION": 100.7173, "RA_OF_ASC_NODE": 202.2097, "ARG_OF_PERICENTER": 58.3475, "MEAN_ANOMALY": 302.3085, "EPHEMERIS_TYPE": 0, "CLASSIFICATION_TYPE": "U", "NORAD_CAT_ID": 31565, "ELEMENT_SET_NO": 999, "REV_AT_EPOCH": 64161, "BSTAR": 0.0030186467, "MEAN_MOTION_DOT": 9.348e-05, "MEAN_MOTION_DDOT": 0}, "tle": {"line1": "1 31565U 99025BZG 25333.38015897  .00009348  00000+0  30186-2 0  9995", "line2": "2 31565 100.7173 202.2097 0055323  58.3475 302.3085 14.38541647641615"}}, "geometry": {"type": "Point", "coordinates": [20.93556307773996, -38.862773670423124]}}, {"type": "Feature", "properties": {"norad_id": 31566, "name": "FENGYUN 1C DEB", "group": "fengyun-1c-debris", "lat": -47.91238670417405, "lon": 48.074461779283105, "alt_km": 768.054197720302, "timestamp": "2025-12-05T09:41:19.413029+00:00", "meta": {"OBJECT_NAME": "FENGYUN 1C DEB", "OBJECT_ID": "1999-025BZH", "EPOCH": "2025-12-04T10:35:24.609120", "MEAN_MOTION": 14.37241094, "ECCENTRICITY": 0.0023131, "INCLINATION": 98.95, "RA_OF_ASC_NODE": 37.0249, "ARG_OF_PERICENTER": 22.0635, "MEAN_ANOMALY": 352.6159, "EPHEMERIS_TYPE": 0, "CLASSIFICATION_TYPE": "U", "NORAD_CAT_ID": 31566, "ELEMENT_SET_NO": 999, "REV_AT_EPOCH": 96272, "BSTAR": 0.0050885, "MEAN_MOTION_DOT": 0.0001519, "MEAN_MOTION_DDOT": 0}, "tle": {"line1": "1 31566U 99025BZH 25338.44125705  .00015190  00000+0  50885-2 0  9998", "line2": "2 31566  98.9500  37.0249 0023131  22.0635 352.6159 14.37241094962729"}}, "geometry": {"type": "Point", "coordinates": [48.074461779283105, -47.91238670417405]}}]}